OBJECT_NAME,OBJECT_ID,EPOCH,MEAN_MOTION,ECCENTRICITY,INCLINATION,RA_OF_ASC_NODE,ARG_OF_PERICENTER,MEAN_ANOMALY,EPHEMERIS_TYPE,CLASSIFICATION_TYPE,NORAD_CAT_ID,ELEMENT_SET_NO,REV_AT_EPOCH,BSTAR,MEAN_MOTION_DOT,MEAN_MOTION_DDOT
ALOS-2,2014-029A,2026-07-13T05:53:27.025152,14.79472347,.0001599,97.9229,291.0365,93.9918,266.1477,0,U,39766,999,65543,.14966522E-3,.1066E-4,0
KAZEOSAT 2,2014-033A,2026-07-13T07:09:27.313920,14.85497472,.00072997,97.5398,32.5296,226.8678,133.1928,0,U,40010,999,65283,.31496146E-4,.222E-5,0
HODOYOSHI-4,2014-033B,2026-07-13T07:47:13.395840,14.88184585,.0022552,97.5454,17.8870,216.0678,143.9019,0,U,40011,999,65269,.76473134E-4,.656E-5,0
DEIMOS-2,2014-033D,2026-07-13T05:47:02.373216,14.93790663,.00008514,97.5801,67.8113,91.8660,268.2658,0,U,40013,999,64161,.34991998E-4,.317E-5,0
HODOYOSHI-3,2014-033F,2026-07-13T07:43:17.718240,14.85435198,.00312903,97.6442,356.3147,268.3693,91.3938,0,U,40015,999,65150,.62549296E-4,.49E-5,0
SPOT 7,2014-034A,2026-07-13T06:37:00.427296,14.60979379,.00016083,98.0624,256.0938,96.5046,263.6338,0,U,40053,999,64094,.18348648E-4,.45E-6,0
SKYSAT-B,2014-037D,2026-07-12T21:05:41.823456,14.88088942,.00053934,98.3853,154.3116,179.8697,180.2520,0,U,40072,999,64978,.76424361E-4,.641E-5,0
WORLDVIEW-3 (WV-3),2014-048A,2026-07-13T07:27:12.863520,14.85062508,.00011562,97.8557,268.7820,159.0945,201.0318,0,U,40115,999,64578,.57001778E-4,.434E-5,0
GAOFEN-2,2014-049A,2026-07-13T07:47:42.275904,14.80924394,.00080981,98.0104,258.5055,139.9667,220.2144,0,U,40118,999,64310,.1183765E-5,-.44E-6,0
YAOGAN-21,2014-053A,2026-07-13T07:35:54.811104,15.26744442,.00079804,97.1463,233.4342,14.2649,345.8814,0,U,40143,999,65894,.18518307E-3,.4803E-4,0
YAOGAN-22,2014-063A,2026-07-12T21:22:57.186624,13.15531652,.00068289,100.7758,345.5946,130.0121,230.1591,0,U,40275,999,56319,-.9344616E-5,-.5E-6,0
ASNARO,2014-070A,2026-07-13T07:13:13.234368,15.19811847,.00068098,97.3448,269.7129,94.0032,266.1982,0,U,40298,999,64797,.23465101E-3,.4962E-4,0
YAOGAN-24,2014-072A,2026-07-13T07:33:26.770752,14.76116085,.00144698,98.1514,331.8751,175.5307,184.6034,0,U,40310,999,62757,-.148853E-5,-.64E-6,0
CBERS 4,2014-079A,2026-07-13T07:33:17.079264,14.35515496,.00008774,98.3526,250.3249,53.1783,306.9483,0,U,40336,999,60770,.17679369E-4,.9E-7,0
YAOGAN-26,2014-088A,2026-07-13T06:01:29.646912,15.48399412,.00022122,97.0641,193.8683,351.9316,8.1899,0,U,40362,999,64173,.38493227E-3,.20334E-3,0
SMAP,2015-003A,2026-07-13T06:25:40.839456,14.63388230,.00015878,98.1283,200.9936,96.0273,264.1110,0,U,40376,999,61143,.49911193E-4,.211E-5,0
KOMPSAT-3A,2015-014A,2026-07-13T05:53:22.250688,15.55344723,.00564182,97.6884,187.5394,82.5131,278.2528,0,U,40536,999,62586,.26539729E-3,.19254E-3,0
SENTINEL-2A,2015-028A,2026-07-13T07:09:59.785632,14.30813866,.00012712,98.5683,268.7786,95.9726,264.1602,0,U,40697,999,57746,-.74373E-6,-.46E-6,0
GAOFEN-8,2015-030A,2026-07-13T07:03:36.434880,15.46892996,.00100112,97.6893,29.2486,101.5386,258.6988,0,U,40701,999,61548,.20218414E-3,.1009E-3,0
CARBONITE 1 (CBNT-1),2015-032D,2026-07-13T06:47:57.494976,14.83663149,.00136382,97.6517,11.2597,203.6399,156.4190,0,U,40718,999,59321,.56191577E-4,.414E-5,0
YAOGAN-27,2015-040A,2026-07-13T06:08:15.415872,13.16071547,.00084787,100.1161,179.5084,149.3362,210.8249,0,U,40878,999,52109,.65228799E-3,.205E-5,0
GAOFEN-9 01,2015-047A,2026-07-13T07:27:46.288224,14.82932963,.00285669,97.6271,228.8176,56.4225,303.9711,0,U,40894,999,58406,.68535771E-4,.509E-5,0
YAOGAN-28,2015-064A,2026-07-13T07:52:40.317888,15.27744655,.00120784,97.3102,332.0670,98.7416,261.5192,0,U,41026,999,59467,.15217411E-3,.4059E-4,0
YAOGAN-29,2015-069A,2026-07-13T06:54:23.751360,14.83104066,.00009057,98.0024,222.9604,13.1564,346.9673,0,U,41038,999,57449,.909456E-6,-.47E-6,0
KENT RIDGE 1,2015-077B,2026-07-12T21:33:12.261312,15.23276730,.00082804,14.9801,74.7485,242.6265,117.3215,0,U,41167,999,58502,.73736956E-4,.2563E-4,0
GAOFEN-4,2015-083A,2026-07-13T07:07:23.672928,1.00273322,.00040279,0.4212,83.7989,125.6500,294.2578,0,U,41194,999,3879,0,-.338E-5,0
JASON-3,2016-002A,2026-07-13T06:07:28.232832,12.87628541,.00082032,66.0416,71.0312,271.1311,88.8768,0,U,41240,999,49060,.15897741E-3,-.22E-6,0
SENTINEL-3A,2016-011A,2026-07-13T07:19:01.071264,14.26739453,.00013671,98.6238,261.3119,90.7843,269.3494,0,U,41335,999,54178,.37974218E-4,.48E-6,0
ZIYUAN 3-02 (ZY 3-02),2016-033A,2026-07-13T07:15:17.622720,15.21423086,.00138679,97.3832,269.5743,191.5238,168.5683,0,U,41556,999,56195,.13650311E-3,.3002E-4,0
CARTOSAT-2C,2016-040A,2026-07-13T06:35:25.022688,15.19255930,.00097119,97.4476,253.8913,51.5478,308.6627,0,U,41599,999,55767,.10365444E-3,.2119E-4,0
