ALOS-2                  
1 39766U 14029A   26194.24545168  .00001066  00000+0  14967-3 0  9996
2 39766  97.9229 291.0365 0001599  93.9918 266.1477 14.79472347655434
KAZEOSAT 2              
1 40010U 14033A   26194.29823280  .00000222  00000+0  31496-4 0  9994
2 40010  97.5398  32.5296 0007299 226.8678 133.1928 14.85497472652833
HODOYOSHI-4             
1 40011U 14033B   26194.32446060  .00000656  00000+0  76473-4 0  9991
2 40011  97.5454  17.8870 0022552 216.0678 143.9019 14.88184585652696
DEIMOS-2                
1 40013U 14033D   26194.24099969  .00000317  00000+0  34992-4 0  9990
2 40013  97.5801  67.8113 0000851  91.8660 268.2658 14.93790663641613
HODOYOSHI-3             
1 40015U 14033F   26194.32173285  .00000490  00000+0  62549-4 0  9996
2 40015  97.6442 356.3147 0031290 268.3693  91.3938 14.85435198651503
SPOT 7                  
1 40053U 14034A   26194.27569939  .00000045  00000+0  18349-4 0  9993
2 40053  98.0624 256.0938 0001608  96.5046 263.6338 14.60979379640940
SKYSAT-B                
1 40072U 14037D   26193.87895629  .00000641  00000+0  76424-4 0  9990
2 40072  98.3853 154.3116 0005393 179.8697 180.2520 14.88088942649783
WORLDVIEW-3 (WV-3)      
1 40115U 14048A   26194.31056555  .00000434  00000+0  57002-4 0  9998
2 40115  97.8557 268.7820 0001156 159.0945 201.0318 14.85062508645787
GAOFEN-2                
1 40118U 14049A   26194.32479486 -.00000044  00000+0  11838-5 0  9991
2 40118  98.0104 258.5055 0008098 139.9667 220.2144 14.80924394643107
YAOGAN-21               
1 40143U 14053A   26194.31660661  .00004803  00000+0  18518-3 0  9996
2 40143  97.1463 233.4342 0007980  14.2649 345.8814 15.26744442658949
YAOGAN-22               
1 40275U 14063A   26193.89093966 -.00000050  00000+0 -93446-5 0  9990
2 40275 100.7758 345.5946 0006828 130.0121 230.1591 13.15531652563193
ASNARO                  
1 40298U 14070A   26194.30084762  .00004962  00000+0  23465-3 0  9990
2 40298  97.3448 269.7129 0006809  94.0032 266.1982 15.19811847647979
YAOGAN-24               
1 40310U 14072A   26194.31489318 -.00000064  00000+0 -14885-5 0  9993
2 40310  98.1514 331.8751 0014469 175.5307 184.6034 14.76116085627570
CBERS 4                 
1 40336U 14079A   26194.31478101  .00000009  00000+0  17679-4 0  9996
2 40336  98.3526 250.3249 0000877  53.1783 306.9483 14.35515496607701
YAOGAN-26               
1 40362U 14088A   26194.25103758  .00020334  00000+0  38493-3 0  9990
2 40362  97.0641 193.8683 0002212 351.9316   8.1899 15.48399412641739
SMAP                    
1 40376U 15003A   26194.26783379  .00000211  00000+0  49911-4 0  9997
2 40376  98.1283 200.9936 0001587  96.0273 264.1110 14.63388230611438
KOMPSAT-3A              
1 40536U 15014A   26194.24539642  .00019254  00000+0  26540-3 0  9996
2 40536  97.6884 187.5394 0056418  82.5131 278.2528 15.55344723625863
SENTINEL-2A             
1 40697U 15028A   26194.29860863 -.00000046  00000+0 -74373-6 0  9997
2 40697  98.5683 268.7786 0001271  95.9726 264.1602 14.30813866577460
GAOFEN-8                
1 40701U 15030A   26194.29417170  .00010090  00000+0  20218-3 0  9999
2 40701  97.6893  29.2486 0010011 101.5386 258.6988 15.46892996615483
CARBONITE 1 (CBNT-1)    
1 40718U 15032D   26194.28330434  .00000414  00000+0  56192-4 0  9995
2 40718  97.6517  11.2597 0013638 203.6399 156.4190 14.83663149593216
YAOGAN-27               
1 40878U 15040A   26194.25573398  .00000205  00000+0  65229-3 0  9994
2 40878 100.1161 179.5084 0008478 149.3362 210.8249 13.16071547521096
GAOFEN-9 01             
1 40894U 15047A   26194.31095241  .00000509  00000+0  68536-4 0  9994
2 40894  97.6271 228.8176 0028566  56.4225 303.9711 14.82932963584068
YAOGAN-28               
1 41026U 15064A   26194.32824442  .00004059  00000+0  15217-3 0  9996
2 41026  97.3102 332.0670 0012078  98.7416 261.5192 15.27744655594674
YAOGAN-29               
1 41038U 15069A   26194.28777490 -.00000047  00000+0  90946-6 0  9998
2 41038  98.0024 222.9604 0000905  13.1564 346.9673 14.83104066574490
KENT RIDGE 1            
1 41167U 15077B   26193.89805858  .00002563  00000+0  73737-4 0  9997
2 41167  14.9801  74.7485 0008280 242.6265 117.3215 15.23276730585020
GAOFEN-4                
1 41194U 15083A   26194.29680177 -.00000338  00000+0  00000+0 0  9991
2 41194   0.4212  83.7989 0004027 125.6500 294.2578  1.00273322 38790
JASON-3                 
1 41240U 16002A   26194.25518788 -.00000022  00000+0  15898-3 0  9994
2 41240  66.0416  71.0312 0008203 271.1311  88.8768 12.87628541490607
SENTINEL-3A             
1 41335U 16011A   26194.30487351  .00000048  00000+0  37974-4 0  9993
2 41335  98.6238 261.3119 0001367  90.7843 269.3494 14.26739453541781
ZIYUAN 3-02 (ZY 3-02)   
1 41556U 16033A   26194.30228730  .00003002  00000+0  13650-3 0  9993
2 41556  97.3832 269.5743 0013867 191.5238 168.5683 15.21423086561950
CARTOSAT-2C             
1 41599U 16040A   26194.27459517  .00002119  00000+0  10365-3 0  9991
2 41599  97.4476 253.8913 0009711  51.5478 308.6627 15.19255930557678
